NORAD_CAT_ID,OBJECT_NAME,OBJECT_TYPE,EPOCH,MEAN_MOTION,ECCENTRICITY,INCLINATION,RA_OF_ASC_NODE,ARG_OF_PERICENTER,MEAN_ANOMALY,BSTAR,MEAN_MOTION_DOT,MEAN_MOTION_DDOT,TLE_LINE0,TLE_LINE1,TLE_LINE2,SEMIMAJOR_AXIS,PERIOD,APOGEE,PERIGEE,DECAYED
54169.0,STARLINK-5282,PAYLOAD,2023-03-21 03:18:33,15.08848196,0.0001206,53.2178,192.4079,70.168,289.9442,0.0011703,0.00018391,0.0,0 STARLINK-5282,1 54169U 22141N   23080.13788204  .00018391  00000-0  11703-2 0  9997,2 54169  53.2178 192.4079 0001206  70.1680 289.9442 15.08848196 22132,6917.855,95.437,540.555,538.886,0.0
54169.0,STARLINK-5282,PAYLOAD,2023-03-21 12:50:51,15.08866398,0.0001198,53.2177,190.6237,68.2258,291.8862,0.0017663,0.00027955,0.0,0 STARLINK-5282,1 54169U 22141N   23080.53531818  .00027955  00000-0  17663-2 0  9995,2 54169  53.2177 190.6237 0001198  68.2258 291.8862 15.08866398 22194,6917.8,95.436,540.493,538.836,0.0
54169.0,STARLINK-5282,PAYLOAD,2023-03-21 19:12:23,15.08886671,0.0001232,53.2175,189.4344,68.787,291.3254,0.0024826,0.00039495,0.0,0 STARLINK-5282,1 54169U 22141N   23080.80027225  .00039495  00000-0  24826-2 0  9998,2 54169  53.2175 189.4344 0001232  68.7870 291.3254 15.08886671 22232,6917.738,95.435,540.455,538.75,0.0
54169.0,STARLINK-5282,PAYLOAD,2023-03-22 03:09:19,15.08840123,0.0001111,53.2176,187.9478,80.5409,279.5709,-0.00022864,-3.925e-05,0.0,0 STARLINK-5282,1 54169U 22141N   23081.13147691 -.00003925  00000-0 -22864-3 0  9997,2 54169  53.2176 187.9478 0001111  80.5409 279.5709 15.08840123 22280,6917.88,95.438,540.514,538.976,0.0
54169.0,STARLINK-5282,PAYLOAD,2023-03-22 12:41:38,15.08858753,0.0001122,53.2173,186.1637,83.817,276.295,0.0019868,0.0003149,0.0,0 STARLINK-5282,1 54169U 22141N   23081.52891683  .00031490  00000-0  19868-2 0  9992,2 54169  53.2173 186.1637 0001122  83.8170 276.2950 15.08858753 22345,6917.823,95.436,540.464,538.912,0.0
54169.0,STARLINK-5282,PAYLOAD,2023-03-22 15:52:24,15.08866171,0.0001138,53.2172,185.569,84.7486,275.3636,0.0024725,0.0003931,0.0,0 STARLINK-5282,1 54169U 22141N   23081.66139578  .00039310  00000-0  24725-2 0  9992,2 54169  53.2172 185.5690 0001138  84.7486 275.3636 15.08866171 22369,6917.8,95.436,540.453,538.878,0.0
54169.0,STARLINK-5282,PAYLOAD,2023-03-23 03:00:06,15.08845781,0.0001031,53.2171,183.4878,108.1395,251.971,0.00060407,9.34e-05,0.0,0 STARLINK-5282,1 54169U 22141N   23082.12507657  .00009340  00000-0  60407-3 0  9999,2 54169  53.2171 183.4878 0001031 108.1395 251.9710 15.08845781 22430,6917.863,95.437,540.441,539.014,0.0
54169.0,STARLINK-5282,PAYLOAD,2023-03-23 14:07:48,15.08856249,0.0001125,53.2168,181.4055,105.6568,254.4548,0.00047936,7.353e-05,0.0,0 STARLINK-5282,1 54169U 22141N   23082.58875352  .00007353  00000-0  47936-3 0  9993,2 54169  53.2168 181.4055 0001125 105.6568 254.4548 15.08856249 22505,6917.831,95.437,540.474,538.917,0.0
54169.0,STARLINK-5282,PAYLOAD,2023-03-24 04:26:15,15.08909791,0.00012,53.2164,178.7302,88.7401,271.3729,0.0032164,0.00051373,0.0,0 STARLINK-5282,1 54169U 22141N   23083.18490733  .00051373  00000-0  32164-2 0  9993,2 54169  53.2164 178.7302 0001200  88.7401 271.3729 15.08909791 22595,6917.667,95.433,540.362,538.702,0.0
54169.0,STARLINK-5282,PAYLOAD,2023-03-24 12:23:10,15.08929504,0.0001321,53.2166,177.2431,106.5365,253.5772,0.003441,0.00055038,0.0,0 STARLINK-5282,1 54169U 22141N   23083.51609122  .00055038  00000-0  34410-2 0  9992,2 54169  53.2166 177.2431 0001321 106.5365 253.5772 15.08929504 22646,6917.607,95.432,540.386,538.558,0.0
54169.0,STARLINK-5282,PAYLOAD,2023-03-24 15:33:55,15.08948125,0.0001309,53.2166,176.6486,101.9089,258.2049,0.0035938,0.00057545,0.0,0 STARLINK-5282,1 54169U 22141N   23083.64856153  .00057545  00000-0  35938-2 0  9995,2 54169  53.2166 176.6486 0001309 101.9089 258.2049 15.08948125 22668,6917.55,95.431,540.32,538.509,0.0
54169.0,STARLINK-5282,PAYLOAD,2023-03-25 02:41:37,15.08867903,0.0001616,53.2161,174.5661,131.9564,228.1566,-0.00067908,-0.00011088,0.0,0 STARLINK-5282,1 54169U 22141N   23084.11223392 -.00011088  00000-0 -67908-3 0  9998,2 54169  53.2161 174.5661 0001616 131.9564 228.1566 15.08867903 22739,6917.795,95.436,540.778,538.542,0.0
54169.0,STARLINK-5282,PAYLOAD,2023-03-25 15:24:41,15.08865593,0.000141,53.2159,172.1879,119.911,240.2022,0.0017231,0.00027261,0.0,0 STARLINK-5282,1 54169U 22141N   23084.64214898  .00027261  00000-0  17231-2 0  9998,2 54169  53.2159 172.1879 0001410 119.9110 240.2022 15.08865593 22810,6917.802,95.436,540.643,538.692,0.0
54169.0,STARLINK-5282,PAYLOAD,2023-03-26 12:04:45,15.08756401,9.88e-05,53.2168,168.3229,94.6057,265.5048,0.0024654,0.00039077,0.0,0 STARLINK-5282,1 54169U 22141N   23085.50330635  .00039077  00000-0  24654-2 0  9997,2 54169  53.2168 168.3229 0000988  94.6057 265.5048 15.08756401 22943,6918.136,95.443,540.684,539.317,0.0
54169.0,STARLINK-5282,PAYLOAD,2023-03-26 16:50:55,15.08771348,9.85e-05,53.2166,167.4306,83.3932,276.7172,0.0024692,0.00039154,0.0,0 STARLINK-5282,1 54169U 22141N   23085.70203688  .00039154  00000-0  24692-2 0  9994,2 54169  53.2166 167.4306 0000985  83.3932 276.7172 15.08771348 22973,6918.09,95.442,540.637,539.274,0.0
54169.0,STARLINK-5282,PAYLOAD,2023-03-27 11:55:35,15.08827045,8.19e-05,53.2163,163.8622,87.3409,272.7677,0.0020432,0.00032368,0.0,0 STARLINK-5282,1 54169U 22141N   23086.49693531  .00032368  00000-0  20432-2 0  9999,2 54169  53.2163 163.8622 0000819  87.3409 272.7677 15.08827045 23096,6917.92,95.438,540.352,539.218,0.0
54169.0,STARLINK-5282,PAYLOAD,2023-03-27 15:06:21,15.08839519,9.43e-05,53.2163,163.2672,82.7982,277.3117,0.0022235,0.00035276,0.0,0 STARLINK-5282,1 54169U 22141N   23086.62941581  .00035276  00000-0  22235-2 0  9999,2 54169  53.2163 163.2672 0000943  82.7982 277.3117 15.08839519 23110,6917.882,95.438,540.399,539.095,0.0
54169.0,STARLINK-5282,PAYLOAD,2023-03-28 11:46:21,15.08872884,0.0001083,53.2165,159.403,77.2449,282.8665,0.0017726,0.00028061,0.0,0 STARLINK-5282,1 54169U 22141N   23087.49052992  .00028061  00000-0  17726-2 0  9997,2 54169  53.2165 159.4030 0001083  77.2449 282.8665 15.08872884 23245,6917.78,95.435,540.394,538.896,0.0
54169.0,STARLINK-5282,PAYLOAD,2023-03-28 13:21:44,15.08878486,0.0001085,53.2166,159.1059,76.3895,283.7218,0.00189,0.00029951,0.0,0 STARLINK-5282,1 54169U 22141N   23087.55676803  .00029951  00000-0  18900-2 0  9991,2 54169  53.2166 159.1059 0001085  76.3895 283.7218 15.08878486 23250,6917.763,95.435,540.378,538.877,0.0
54169.0,STARLINK-5282,PAYLOAD,2023-03-28 21:18:40,15.08864119,0.0001107,53.2166,157.6186,118.6115,241.4989,0.0015376,0.00024284,0.0,0 STARLINK-5282,1 54169U 22141N   23087.88796560  .00024284  00000-0  15376-2 0  9998,2 54169  53.2166 157.6186 0001107 118.6115 241.4989 15.08864119 23304,6917.807,95.436,540.437,538.906,0.0
54169.0,STARLINK-5282,PAYLOAD,2023-03-29 03:40:12,15.08857196,0.0002041,53.2194,156.4263,98.8682,261.2541,0.00099224,0.00015546,0.0,0 STARLINK-5282,1 54169U 22141N   23088.15292789  .00015546  00000-0  99224-3 0  9999,2 54169  53.2194 156.4263 0002041  98.8682 261.2541 15.08857196 23349,6917.828,95.436,541.105,538.281,0.0
54169.0,STARLINK-5282,PAYLOAD,2023-03-29 10:01:45,15.08852259,0.0001527,53.218,155.2407,126.4836,233.6297,0.00014969,2.096e-05,0.0,0 STARLINK-5282,1 54169U 22141N   23088.41788403  .00002096  00000-0  14969-3 0  9990,2 54169  53.2180 155.2407 0001527 126.4836 233.6297 15.08852259 23388,6917.843,95.437,540.764,538.652,0.0
54169.0,STARLINK-5282,PAYLOAD,2023-03-29 11:37:08,15.0885689,0.0001196,53.2176,154.9427,114.6792,245.4325,0.00045248,6.924e-05,0.0,0 STARLINK-5282,1 54169U 22141N   23088.48412346  .00006924  00000-0  45248-3 0  9995,2 54169  53.2176 154.9427 0001196 114.6792 245.4325 15.08856890 23392,6917.829,95.436,540.521,538.866,0.0
54169.0,STARLINK-5282,PAYLOAD,2023-03-29 14:47:54,15.0886657,0.0001116,53.218,154.3486,113.3907,246.7203,0.00091655,0.0001434,0.0,0 STARLINK-5282,1 54169U 22141N   23088.61660110  .00014340  00000-0  91655-3 0  9998,2 54169  53.2180 154.3486 0001116 113.3907 246.7203 15.08866570 23410,6917.799,95.436,540.436,538.892,0.0
54169.0,STARLINK-5282,PAYLOAD,2023-03-29 21:09:27,15.08843031,0.0001129,53.2171,153.1601,120.0892,240.0212,0.0002015,2.921e-05,0.0,0 STARLINK-5282,1 54169U 22141N   23088.88156498  .00002921  00000-0  20150-3 0  9990,2 54169  53.2171 153.1601 0001129 120.0892 240.0212 15.08843031 23456,6917.871,95.437,540.517,538.955,0.0
54169.0,STARLINK-5282,PAYLOAD,2023-03-30 21:00:14,15.08841967,8.62e-05,53.2168,148.6985,116.5544,243.5536,0.00060731,9.391e-05,0.0,0 STARLINK-5282,1 54169U 22141N   23089.87516717  .00009391  00000-0  60731-3 0  9991,2 54169  53.2168 148.6985 0000862 116.5544 243.5536 15.08841967 23603,6917.874,95.437,540.336,539.143,0.0
54169.0,STARLINK-5282,PAYLOAD,2023-04-01 03:12:34,15.08829926,0.0001058,53.2165,143.0479,120.9367,239.1729,0.00059231,9.149e-05,0.0,0 STARLINK-5282,1 54169U 22141N   23091.13373119  .00009149  00000-0  59231-3 0  9994,2 54169  53.2165 143.0479 0001058 120.9367 239.1729 15.08829926 23793,6917.911,95.438,540.508,539.044,0.0
54169.0,STARLINK-5282,PAYLOAD,2023-04-01 09:34:07,15.08835598,0.0001116,53.2157,141.8581,106.4939,253.6175,0.0015426,0.00024345,0.0,0 STARLINK-5282,1 54169U 22141N   23091.39869312  .00024345  00000-0  15426-2 0  9999,2 54169  53.2157 141.8581 0001116 106.4939 253.6175 15.08835598 23836,6917.894,95.438,540.531,538.987,0.0
54169.0,STARLINK-5282,PAYLOAD,2023-04-01 20:41:49,15.08843758,9.94e-05,53.2156,139.7779,96.9034,263.2071,0.0012079,0.0001899,0.0,0 STARLINK-5282,1 54169U 22141N   23091.86237533  .00018990  00000-0  12079-2 0  9995,2 54169  53.2156 139.7779 0000994  96.9034 263.2071 15.08843758 23909,6917.869,95.437,540.422,539.046,0.0
54169.0,STARLINK-5282,PAYLOAD,2023-04-02 09:24:54,15.08848858,0.0001294,53.2162,137.3988,92.6469,267.4672,0.0007881,0.0001228,0.0,0 STARLINK-5282,1 54169U 22141N   23092.39229601  .00012280  00000-0  78810-3 0  9993,2 54169  53.2162 137.3988 0001294  92.6469 267.4672 15.08848858 23988,6917.853,95.437,540.613,538.823,0.0
